[{"OBJECT_NAME":"STARLINK-35340","OBJECT_ID":"2025-232T","EPOCH":"2026-03-09T08:07:22.279584","MEAN_MOTION":15.30199116,"ECCENTRICITY":0.00011731,"INCLINATION":53.1583,"RA_OF_ASC_NODE":105.4085,"ARG_OF_PERICENTER":127.6285,"MEAN_ANOMALY":232.4822,"EPHEMERIS_TYPE":0,"CLASSIFICATION_TYPE":"U","NORAD_CAT_ID":66022,"ELEMENT_SET_NO":999,"REV_AT_EPOCH":2338,"BSTAR":0.00073370048,"MEAN_MOTION_DOT":0.00021433,"MEAN_MOTION_DDOT":0},{"OBJECT_NAME":"PUCP-SAT 1","OBJECT_ID":"2013-066AC","EPOCH":"2026-03-09T22:02:13.763904","MEAN_MOTION":15.29426022,"ECCENTRICITY":0.00136836,"INCLINATION":97.5787,"RA_OF_ASC_NODE":61.0032,"ARG_OF_PERICENTER":300.1183,"MEAN_ANOMALY":59.87,"EPHEMERIS_TYPE":0,"CLASSIFICATION_TYPE":"U","NORAD_CAT_ID":39442,"ELEMENT_SET_NO":999,"REV_AT_EPOCH":66907,"BSTAR":0.00088755185,"MEAN_MOTION_DOT":0.00025373,"MEAN_MOTION_DDOT":0}]
